ORBCOMM FM06            
1 25118U 97084G   26198.94272990  .00000406  00000+0  14839-3 0  9990
2 25118  45.0134 264.6468 0001719 241.9813 287.8000 14.47630286498847
ORBCOMM FM04            
1 25159U 98007C   26198.91112590  .00000335  00000+0  16004-3 0  9994
2 25159 107.9632 232.6563 0041987 272.3216  87.3118 14.35787251481005
ORBCOMM FM19            
1 25415U 98046C   26198.75139940  .00000375  00000+0  16448-3 0  9998
2 25415  44.9937  98.2711 0003240  79.7771 315.4535 14.39544002461188
ORBCOMM FM20            
1 25416U 98046D   26198.78794367  .00000264  00000+0  13275-3 0  9994
2 25416  44.9937 106.3585 0001184  15.7700 344.3185 14.38102428461190
ORBCOMM FM27            
1 25481U 98053G   26198.38401653  .00000285  00000+0  13668-3 0  9992
2 25481  45.0032 191.9219 0002333 299.0542  61.0073 14.39186914454589
ORBCOMM FM32            
1 25982U 99065C   26198.94641738  .00000259  00000+0  13366-3 0  9990
2 25982  45.0158  27.6393 0005953 204.9683 155.0878 14.37170302391516
ORBCOMM FM109           
1 40086U 14040A   26198.30099115  .00000063  00000+0  49507-4 0  9998
2 40086  47.0036 309.1089 0001397 329.9966  30.0840 14.58872972638740
ORBCOMM FM110           
1 41182U 15081D   26198.44269391  .00000149  00000+0  67798-4 0  9999
2 41182  47.0002 218.3818 0003681 231.5677 128.4879 14.58919619562040
ORBCOMM FM118           
1 41183U 15081E   26198.47714492  .00000013  00000+0  38909-4 0  9992
2 41183  47.0023 218.5580 0003006 196.4338 163.6450 14.58904729562150
ORBCOMM FM112           
1 41184U 15081F   26198.82351013  .00000226  00000+0  83948-4 0  9997
2 41184  46.9985 125.3701 0003538 339.6423  20.4321 14.58940490563425
ORBCOMM FM113           
1 41185U 15081G   26198.86969623  .00000112  00000+0  59967-4 0  9992
2 41185  47.0002 125.5443 0002072 331.7166  28.3607 14.58883577563417
ORBCOMM FM108           
1 41187U 15081J   26198.90012555  .00000228  00000+0  84419-4 0  9990
2 41187  47.0057  36.9821 0002486 332.5359  27.5395 14.58912665564569
ORBCOMM FM117           
1 41188U 15081K   26198.93436851  .00000218  00000+0  82287-4 0  9993
2 41188  47.0021  35.4466 0002884 340.6172  19.4603 14.58899752564614
ORBCOMM FM116           
1 41189U 15081L   26198.84600558  .00000146  00000+0  66943-4 0  9992
2 41189  47.0016 125.6534 0001629 236.5999 123.4731 14.58908021563418
